{
"type": "FeatureCollection",
"name": "land_use_2025",
"crs": { "type": "name", "properties": { "name": "urn:ogc:def:crs:OGC:1.3:CRS84" } },
"features": [
{ "type": "Feature", "properties": { "land_use": "Residenziale (Misto)" }, "geometry": { "type": "Polygon", "coordinates": [ [ [ 0.0, 0.0 ], [ 0.0, 100.0 ], [ 100.0, 100.0 ], [ 100.0, 0.0 ], [ 0.0, 0.0 ] ] ] } },
{ "type": "Feature", "properties": { "land_use": "Commerciale" }, "geometry": { "type": "Polygon", "coordinates": [ [ [ 120.0, 0.0 ], [ 120.0, 80.0 ], [ 200.0, 80.0 ], [ 200.0, 0.0 ], [ 120.0, 0.0 ] ] ] } },
{ "type": "Feature", "properties": { "land_use": "Verde" }, "geometry": { "type": "Polygon", "coordinates": [ [ [ 0.0, 120.0 ], [ 0.0, 200.0 ], [ 80.0, 200.0 ], [ 80.0, 120.0 ], [ 0.0, 120.0 ] ] ] } }
]
}
