{
"type": "FeatureCollection",
"name": "parking_processed",
"crs": { "type": "name", "properties": { "name": "urn:ogc:def:crs:OGC:1.3:CRS84" } },
"features": [
{ "type": "Feature", "properties": { "element": "way", "id": 532933163, "amenity": "parking", "parking": null, "access": null, "fee": null, "area_mq": 336.70689008929855, "distance_to_stadium": 1037.6338563506636, "estimated_capacity": 13 }, "geometry": { "type": "Polygon", "coordinates": [ [ [ 14.8371097, 40.6293238 ], [ 14.8374316, 40.6291345 ], [ 14.8374718, 40.6292302 ], [ 14.8371821, 40.6293971 ], [ 14.8371097, 40.6293238 ] ] ] } },
{ "type": "Feature", "properties": { "element": "way", "id": 532933175, "amenity": "parking", "parking": "surface", "access": null, "fee": null, "area_mq": 2449.8233978406665, "distance_to_stadium": 970.33027956404226, "estimated_capacity": 97 }, "geometry": { "type": "Polygon", "coordinates": [ [ [ 14.8362773, 40.6302521 ], [ 14.8373448, 40.6297706 ], [ 14.8373167, 40.6300332 ], [ 14.8372389, 40.6301004 ], [ 14.8365818, 40.6303803 ], [ 14.8364543, 40.6303905 ], [ 14.8362894, 40.63031920000001 ], [ 14.8362331, 40.6302714 ], [ 14.8362773, 40.6302521 ] ] ] } },
{ "type": "Feature", "properties": { "element": "way", "id": 585610320, "amenity": "parking", "parking": "surface", "access": "customers", "fee": "no", "area_mq": 4873.7586525098286, "distance_to_stadium": 1120.6709077590888, "estimated_capacity": 194 }, "geometry": { "type": "Polygon", "coordinates": [ [ [ 14.828731, 40.6361355 ], [ 14.8292567, 40.6363716 ], [ 14.8293962, 40.6362821 ], [ 14.829364, 40.6362088 ], [ 14.8299917, 40.6356877 ], [ 14.8295754, 40.63538650000001 ], [ 14.8288483, 40.6359944 ], [ 14.8290516, 40.6359476 ], [ 14.8290617, 40.635984 ], [ 14.8290667, 40.6360162 ], [ 14.8290732, 40.6360458 ], [ 14.828731, 40.6361355 ] ] ] } },
{ "type": "Feature", "properties": { "element": "way", "id": 678140116, "amenity": "parking", "parking": null, "access": "customers", "fee": null, "area_mq": 4341.4121804304232, "distance_to_stadium": 439.74270186437923, "estimated_capacity": 173 }, "geometry": { "type": "Polygon", "coordinates": [ [ [ 14.8374885, 40.6359019 ], [ 14.8373908, 40.6358015 ], [ 14.8373865, 40.6357765 ], [ 14.8374109, 40.6357481 ], [ 14.8374425, 40.6357208 ], [ 14.8374914, 40.6356925 ], [ 14.8375403, 40.6356739 ], [ 14.8379427, 40.6355038 ], [ 14.8379844, 40.6354743 ], [ 14.8386902, 40.6349682 ], [ 14.8387318, 40.6349507 ], [ 14.8387778, 40.6349442 ], [ 14.8388008, 40.63494750000001 ], [ 14.8389503, 40.6350914 ], [ 14.8386528, 40.6352998 ], [ 14.8385421, 40.6354067 ], [ 14.8378335, 40.6359106 ], [ 14.8376783, 40.636023 ], [ 14.8374885, 40.6359019 ] ] ] } },
{ "type": "Feature", "properties": { "element": "way", "id": 678140118, "amenity": "parking", "parking": "carports", "access": null, "fee": null, "area_mq": 4906.9348389148272, "distance_to_stadium": 390.52911927829956, "estimated_capacity": 196 }, "geometry": { "type": "Polygon", "coordinates": [ [ [ 14.8384194, 40.6363172 ], [ 14.8390856, 40.6358454 ], [ 14.8391131, 40.6358259 ], [ 14.8386186, 40.635416699999986 ], [ 14.8379301, 40.6359253 ], [ 14.8384194, 40.6363172 ] ] ] } }
]
}
