{
"type": "FeatureCollection",
"name": "stadium_buffers",
"crs": { "type": "name", "properties": { "name": "urn:ogc:def:crs:OGC:1.3:CRS84" } },
"features": [
{ "type": "Feature", "properties": { "distance": "200m", "dist_val": 200 }, "geometry": { "type": "Polygon", "coordinates": [ [ [ 14.844774252563619, 40.637771978500389 ], [ 14.844763272704423, 40.637595360346936 ], [ 14.844729620898827, 40.63742041249391 ], [ 14.844673621404182, 40.637248819765738 ], [ 14.844595813685029, 40.637082234662827 ], [ 14.844496947211651, 40.636922261448348 ], [ 14.844377974236911, 40.636770440699941 ], [ 14.844240040621138, 40.636628234475097 ], [ 14.844084474793574, 40.636497012233008 ], [ 14.843912774956827, 40.636378037648399 ], [ 14.84372659465766, 40.636272456444289 ], [ 14.84352772686305, 40.63618128536055 ], [ 14.84331808669492, 40.636105402364691 ], [ 14.843099692989652, 40.636045538198893 ], [ 14.842874648859976, 40.636002269344459 ], [ 14.842645121446102, 40.635976012471779 ], [ 14.842413321051078, 40.635967020428723 ], [ 14.842181479860921, 40.635975379806368 ], [ 14.841951830454317, 40.63600101010541 ], [ 14.841726584308537, 40.636043664511106 ], [ 14.841507910508312, 40.636102932269559 ], [ 14.84129791486245, 40.636178242642259 ], [ 14.841098619629117, 40.636268870401011 ], [ 14.840911944044793, 40.636373942810259 ], [ 14.840739685844257, 40.636492448029784 ], [ 14.840583503949464, 40.636623244856686 ], [ 14.840444902493939, 40.636765073713313 ], [ 14.840325216336517, 40.636916568775099 ], [ 14.840225598203949, 40.637076271121636 ], [ 14.840147007586328, 40.637242642784607 ], [ 14.840090201492302, 40.637414081557289 ], [ 14.840055727153379, 40.637588936422922 ], [ 14.840043916747733, 40.63776552345378 ], [ 14.840054884194535, 40.637942142027384 ], [ 14.840088524050021, 40.638117091204293 ], [ 14.840144512516069, 40.638288686109263 ], [ 14.840222310551969, 40.638455274158183 ], [ 14.840321169059557, 40.638615250974695 ], [ 14.840440136092086, 40.638767075842722 ], [ 14.840578066017589, 40.638909286546451 ], [ 14.840733630548632, 40.639040513454596 ], [ 14.840905331532442, 40.639159492713077 ], [ 14.841091515378166, 40.639265078419299 ], [ 14.841290388982539, 40.639356253660367 ], [ 14.841500037000374, 40.639432140308983 ], [ 14.841718440293617, 40.639492007482644 ], [ 14.841943495381097, 40.639535278584404 ], [ 14.842173034701483, 40.639561536857528 ], [ 14.84240484749418, 40.639570529400345 ], [ 14.842636701096731, 40.639562169602542 ], [ 14.842866362453448, 40.639536537979602 ], [ 14.843091619627819, 40.639493881397122 ], [ 14.8433103031113, 40.639434610692646 ], [ 14.843520306722956, 40.639359296717913 ], [ 14.843719607898498, 40.639268664839555 ], [ 14.843906287173093, 40.639163587951408 ], [ 14.844078546670145, 40.639045078065848 ], [ 14.844234727417879, 40.638914276565067 ], [ 14.844373325326844, 40.638772443206321 ], [ 14.844493005674504, 40.638620943987206 ], [ 14.844592615957369, 40.638461237987904 ], [ 14.844671196987012, 40.638294863317093 ], [ 14.844727992123241, 40.638123422297085 ], [ 14.844762454555644, 40.637948566030978 ], [ 14.844774252563619, 40.637771978500389 ] ] ] } },
{ "type": "Feature", "properties": { "distance": "500m", "dist_val": 500 }, "geometry": { "type": "Polygon", "coordinates": [ [ [ 14.848322005418455, 40.637776692632329 ], [ 14.848294532497741, 40.63733514803841 ], [ 14.848210380578852, 40.636897780890031 ], [ 14.848070361166091, 40.636468803152638 ], [ 14.847875823715254, 40.636052345920355 ], [ 14.847628642599519, 40.63565241963876 ], [ 14.847331199024712, 40.635272875492404 ], [ 14.846986358069508, 40.634917368328125 ], [ 14.846597441072603, 40.634589321471225 ], [ 14.846168193633694, 40.634291893772406 ], [ 14.845702749536839, 40.634027949202462 ], [ 14.845205590943827, 40.633800029286881 ], [ 14.844681505240812, 40.633610328644998 ], [ 14.844135538953243, 40.633460673869088 ], [ 14.843572949172204, 40.633352505945901 ], [ 14.842999152958917, 40.633286866389454 ], [ 14.842419675213344, 40.633264387218652 ], [ 14.841840095507528, 40.633285284875178 ], [ 14.841265994394135, 40.633349358141011 ], [ 14.840702899705551, 40.633455990074644 ], [ 14.840156233359167, 40.633604153948092 ], [ 14.839631259179445, 40.633792423127254 ], [ 14.839133032237914, 40.634018984801088 ], [ 14.838666350197583, 40.634281657427415 ], [ 14.838235707129394, 40.634577911728208 ], [ 14.837845250244623, 40.634904895032449 ], [ 14.837498739959482, 40.635259458732705 ], [ 14.8371995136763, 40.635638188591827 ], [ 14.836950453630282, 40.636037437608422 ], [ 14.836753959111938, 40.636453361124929 ], [ 14.836611923333493, 40.636881953841318 ], [ 14.836525715163072, 40.637319088377765 ], [ 14.836496165903885, 40.637760555015888 ], [ 14.836523561247146, 40.638202102235738 ], [ 14.83660763847784, 40.638639477658522 ], [ 14.83674758896189, 40.639068469000833 ], [ 14.836942065892385, 40.639484944645694 ], [ 14.837189197221919, 40.639884893439948 ], [ 14.837486603657913, 40.640264463333899 ], [ 14.837831421548925, 40.640619998491253 ], [ 14.838220330442592, 40.640948074510938 ], [ 14.838649585050627, 40.641245531421532 ], [ 14.83911505131347, 40.641509504129658 ], [ 14.839612246217495, 40.641737450028508 ], [ 14.840136380981148, 40.641927173500207 ], [ 14.840682407193601, 40.64207684707516 ], [ 14.841245065460887, 40.642185029044171 ], [ 14.841818936089902, 40.64225067735341 ], [ 14.842398491320926, 40.642273159647686 ], [ 14.842978148604194, 40.642252259365222 ], [ 14.843552324405788, 40.642188177824977 ], [ 14.844115488023084, 40.642081532286433 ], [ 14.844662214889809, 40.6419333500004 ], [ 14.845187238855733, 40.641745058308565 ], [ 14.845685502936071, 40.641518470887142 ], [ 14.846152208040596, 40.64125577026774 ], [ 14.84658285921202, 40.640959486804164 ], [ 14.846973308927662, 40.640632474288161 ], [ 14.847319797046817, 40.640277882449709 ], [ 14.847618987018981, 40.639899126607318 ], [ 14.847867998004364, 40.639499854760921 ], [ 14.848064432597827, 40.639083912445372 ], [ 14.848206399890024, 40.638655305683166 ], [ 14.848292533644718, 40.638218162393898 ], [ 14.848322005418455, 40.637776692632329 ] ] ] } },
{ "type": "Feature", "properties": { "distance": "800m", "dist_val": 800 }, "geometry": { "type": "Polygon", "coordinates": [ [ [ 14.851869759102804, 40.637781297775881 ], [ 14.851825765194025, 40.637074827691862 ], [ 14.851691086278089, 40.636375044231585 ], [ 14.851467022139197, 40.635688686386807 ], [ 14.851155733177466, 40.635022363656837 ], [ 14.850760219505528, 40.634382492414808 ], [ 14.850284291970164, 40.633775234140543 ], [ 14.849732535381371, 40.633206436114101 ], [ 14.849110264305621, 40.632681575139692 ], [ 14.848423471851142, 40.632205704840715 ], [ 14.847678771939606, 40.631783407031932 ], [ 14.84688333562069, 40.631418747635344 ], [ 14.84604482204238, 40.631115237563009 ], [ 14.845171304740637, 40.63087579894183 ], [ 14.844271193956301, 40.630702737004114 ], [ 14.843353155724712, 40.63059771791351 ], [ 14.842426028513977, 40.63056175273887 ], [ 14.841498738210994, 40.630595187729433 ], [ 14.840580212269955, 40.630697700984676 ], [ 14.83967929384583, 40.630868305550692 ], [ 14.838804656735672, 40.631105358913416 ], [ 14.837964721942765, 40.631406578797638 ], [ 14.837167576663404, 40.631769065120537 ], [ 14.836420896473308, 40.632189327889236 ], [ 14.835731871460229, 40.632663320774952 ], [ 14.835107137012177, 40.633186480041601 ], [ 14.834552709926575, 40.633753768455996 ], [ 14.834073930455142, 40.634359723757633 ], [ 14.83367541084306, 40.634998511223493 ], [ 14.833360990859214, 40.635663979822773 ], [ 14.833133700747723, 40.636349721422356 ], [ 14.832995731960256, 40.637049132473919 ], [ 14.832948415954226, 40.637755477589863 ], [ 14.832992211264733, 40.638461954396277 ], [ 14.833126698978894, 40.639161759039041 ], [ 14.833350586660282, 40.6398481517124 ], [ 14.833661720689943, 40.640514521578574 ], [ 14.834057106909201, 40.641154450453008 ], [ 14.834532939369204, 40.641761774641125 ], [ 14.835084636913658, 40.642330644329817 ], [ 14.835706887245122, 40.642855579960951 ], [ 14.836393698052564, 40.643331525042072 ], [ 14.83713845470902, 40.643753894884625 ], [ 14.83793398398414, 40.644118620798395 ], [ 14.838772623157675, 40.644422189315051 ], [ 14.839646293867119, 40.644661676061759 ], [ 14.840546579976253, 40.644834773956759 ], [ 14.841464808712107, 40.64493981545457 ], [ 14.842392134285603, 40.64497578862526 ], [ 14.843319623186867, 40.644942346912316 ], [ 14.844238340329692, 40.644839812474572 ], [ 14.845139435211326, 40.644669173079976 ], [ 14.846014227253553, 40.64443207258104 ], [ 14.846854289499143, 40.644130795064406 ], [ 14.847651529853854, 40.643768242827655 ], [ 14.848398269088282, 40.643347908396699 ], [ 14.849087314845638, 40.642873840854278 ], [ 14.849712030940717, 40.642350606805451 ], [ 14.85026640128139, 40.641783246357285 ], [ 14.850745087796616, 40.641177224538502 ], [ 14.851143481813468, 40.640538378628314 ], [ 14.851457748389619, 40.639872861903505 ], [ 14.851684863176317, 40.639187084346659 ], [ 14.85182264145952, 40.638487650887875 ], [ 14.851869759102804, 40.637781297775881 ] ] ] } }
]
}
