{
"type": "FeatureCollection",
"name": "streets_drive",
"crs": { "type": "name", "properties": { "name": "urn:ogc:def:crs:OGC:1.3:CRS84" } },
"features": [
{ "type": "Feature", "properties": { "osmid": 256259778, "y": 40.6276607, "x": 14.8380967, "street_count": 3 }, "geometry": { "type": "Point", "coordinates": [ 14.8380967, 40.6276607 ] } },
{ "type": "Feature", "properties": { "osmid": 256259782, "y": 40.626827, "x": 14.840639, "street_count": 3 }, "geometry": { "type": "Point", "coordinates": [ 14.840639, 40.626827 ] } },
{ "type": "Feature", "properties": { "osmid": 650021985, "y": 40.6383601, "x": 14.8264031, "street_count": 3 }, "geometry": { "type": "Point", "coordinates": [ 14.8264031, 40.6383601 ] } },
{ "type": "Feature", "properties": { "osmid": 808279350, "y": 40.6356083, "x": 14.8374738, "street_count": 3 }, "geometry": { "type": "Point", "coordinates": [ 14.8374738, 40.6356083 ] } },
{ "type": "Feature", "properties": { "osmid": 1101041927, "y": 40.632221, "x": 14.8332204, "street_count": 4 }, "geometry": { "type": "Point", "coordinates": [ 14.8332204, 40.632221 ] } },
{ "type": "Feature", "properties": { "osmid": 1101041943, "y": 40.6353264, "x": 14.8366956, "street_count": 3 }, "geometry": { "type": "Point", "coordinates": [ 14.8366956, 40.6353264 ] } },
{ "type": "Feature", "properties": { "osmid": 1101041987, "y": 40.6354373, "x": 14.8369576, "street_count": 3 }, "geometry": { "type": "Point", "coordinates": [ 14.8369576, 40.6354373 ] } },
{ "type": "Feature", "properties": { "osmid": 1101042020, "y": 40.6355854, "x": 14.8368329, "street_count": 3 }, "geometry": { "type": "Point", "coordinates": [ 14.8368329, 40.6355854 ] } },
{ "type": "Feature", "properties": { "osmid": 1101042069, "y": 40.6355921, "x": 14.8367889, "street_count": 3 }, "geometry": { "type": "Point", "coordinates": [ 14.8367889, 40.6355921 ] } },
{ "type": "Feature", "properties": { "osmid": 1101042076, "y": 40.6354193, "x": 14.8365956, "street_count": 3 }, "geometry": { "type": "Point", "coordinates": [ 14.8365956, 40.6354193 ] } },
{ "type": "Feature", "properties": { "osmid": 1244500513, "y": 40.6356882, "x": 14.8364165, "street_count": 3 }, "geometry": { "type": "Point", "coordinates": [ 14.8364165, 40.6356882 ] } },
{ "type": "Feature", "properties": { "osmid": 1706530560, "y": 40.6358373, "x": 14.8372611, "street_count": 3 }, "geometry": { "type": "Point", "coordinates": [ 14.8372611, 40.6358373 ] } },
{ "type": "Feature", "properties": { "osmid": 1706530565, "y": 40.6354112, "x": 14.8369504, "street_count": 3 }, "geometry": { "type": "Point", "coordinates": [ 14.8369504, 40.6354112 ] } },
{ "type": "Feature", "properties": { "osmid": 1960712665, "y": 40.6353805, "x": 14.8366168, "street_count": 3 }, "geometry": { "type": "Point", "coordinates": [ 14.8366168, 40.6353805 ] } },
{ "type": "Feature", "properties": { "osmid": 1960877290, "y": 40.6385878, "x": 14.8262228, "street_count": 6 }, "geometry": { "type": "Point", "coordinates": [ 14.8262228, 40.6385878 ] } },
{ "type": "Feature", "properties": { "osmid": 1960877316, "y": 40.6323357, "x": 14.8330802, "street_count": 4 }, "geometry": { "type": "Point", "coordinates": [ 14.8330802, 40.6323357 ] } },
{ "type": "Feature", "properties": { "osmid": 1960877344, "y": 40.6317917, "x": 14.8335073, "street_count": 3 }, "geometry": { "type": "Point", "coordinates": [ 14.8335073, 40.6317917 ] } },
{ "type": "Feature", "properties": { "osmid": 1960881251, "y": 40.6384496, "x": 14.8262059, "street_count": 3 }, "geometry": { "type": "Point", "coordinates": [ 14.8262059, 40.6384496 ] } },
{ "type": "Feature", "properties": { "osmid": 2055964257, "y": 40.6256263, "x": 14.8406196, "street_count": 3 }, "geometry": { "type": "Point", "coordinates": [ 14.8406196, 40.6256263 ] } },
{ "type": "Feature", "properties": { "osmid": 2055964278, "y": 40.6242624, "x": 14.8435567, "street_count": 1 }, "geometry": { "type": "Point", "coordinates": [ 14.8435567, 40.6242624 ] } },
{ "type": "Feature", "properties": { "osmid": 2055964316, "y": 40.623518, "x": 14.8424601, "street_count": 3 }, "geometry": { "type": "Point", "coordinates": [ 14.8424601, 40.623518 ] } },
{ "type": "Feature", "properties": { "osmid": 2055964472, "y": 40.6258721, "x": 14.8413715, "street_count": 3 }, "geometry": { "type": "Point", "coordinates": [ 14.8413715, 40.6258721 ] } },
{ "type": "Feature", "properties": { "osmid": 2055964574, "y": 40.6258014, "x": 14.840904, "street_count": 3 }, "geometry": { "type": "Point", "coordinates": [ 14.840904, 40.6258014 ] } },
{ "type": "Feature", "properties": { "osmid": 2055964582, "y": 40.6255307, "x": 14.8406352, "street_count": 3 }, "geometry": { "type": "Point", "coordinates": [ 14.8406352, 40.6255307 ] } },
{ "type": "Feature", "properties": { "osmid": 2056481671, "y": 40.6373159, "x": 14.8273213, "street_count": 3 }, "geometry": { "type": "Point", "coordinates": [ 14.8273213, 40.6373159 ] } },
{ "type": "Feature", "properties": { "osmid": 2056499646, "y": 40.6350752, "x": 14.8427428, "street_count": 3 }, "geometry": { "type": "Point", "coordinates": [ 14.8427428, 40.6350752 ] } },
{ "type": "Feature", "properties": { "osmid": 2056499783, "y": 40.637635, "x": 14.8392659, "street_count": 3 }, "geometry": { "type": "Point", "coordinates": [ 14.8392659, 40.637635 ] } },
{ "type": "Feature", "properties": { "osmid": 3244975420, "y": 40.6282622, "x": 14.8374824, "street_count": 3 }, "geometry": { "type": "Point", "coordinates": [ 14.8374824, 40.6282622 ] } },
{ "type": "Feature", "properties": { "osmid": 3244975422, "y": 40.62948, "x": 14.8384228, "street_count": 1 }, "geometry": { "type": "Point", "coordinates": [ 14.8384228, 40.62948 ] } },
{ "type": "Feature", "properties": { "osmid": 3563612685, "y": 40.6254167, "x": 14.8404614, "street_count": 1 }, "geometry": { "type": "Point", "coordinates": [ 14.8404614, 40.6254167 ] } },
{ "type": "Feature", "properties": { "osmid": 3563613346, "y": 40.6248883, "x": 14.841457, "street_count": 3 }, "geometry": { "type": "Point", "coordinates": [ 14.841457, 40.6248883 ] } },
{ "type": "Feature", "properties": { "osmid": 3746098567, "y": 40.6273666, "x": 14.8395708, "street_count": 3 }, "geometry": { "type": "Point", "coordinates": [ 14.8395708, 40.6273666 ] } },
{ "type": "Feature", "properties": { "osmid": 3746098570, "y": 40.627402, "x": 14.8400207, "street_count": 3 }, "geometry": { "type": "Point", "coordinates": [ 14.8400207, 40.627402 ] } },
{ "type": "Feature", "properties": { "osmid": 3746098576, "y": 40.6274427, "x": 14.8396396, "street_count": 3 }, "geometry": { "type": "Point", "coordinates": [ 14.8396396, 40.6274427 ] } },
{ "type": "Feature", "properties": { "osmid": 3746098579, "y": 40.6270992, "x": 14.83988, "street_count": 3 }, "geometry": { "type": "Point", "coordinates": [ 14.83988, 40.6270992 ] } },
{ "type": "Feature", "properties": { "osmid": 3746098592, "y": 40.6317756, "x": 14.8374366, "street_count": 3 }, "geometry": { "type": "Point", "coordinates": [ 14.8374366, 40.6317756 ] } },
{ "type": "Feature", "properties": { "osmid": 3746098598, "y": 40.6315174, "x": 14.8373136, "street_count": 3 }, "geometry": { "type": "Point", "coordinates": [ 14.8373136, 40.6315174 ] } },
{ "type": "Feature", "properties": { "osmid": 3746098601, "y": 40.631698, "x": 14.8371833, "street_count": 3 }, "geometry": { "type": "Point", "coordinates": [ 14.8371833, 40.631698 ] } },
{ "type": "Feature", "properties": { "osmid": 3746098603, "y": 40.6316019, "x": 14.8371853, "street_count": 3 }, "geometry": { "type": "Point", "coordinates": [ 14.8371853, 40.6316019 ] } },
{ "type": "Feature", "properties": { "osmid": 3746098605, "y": 40.631546, "x": 14.8374719, "street_count": 3 }, "geometry": { "type": "Point", "coordinates": [ 14.8374719, 40.631546 ] } },
{ "type": "Feature", "properties": { "osmid": 3746098613, "y": 40.6318017, "x": 14.8374671, "street_count": 3 }, "geometry": { "type": "Point", "coordinates": [ 14.8374671, 40.6318017 ] } },
{ "type": "Feature", "properties": { "osmid": 3746098617, "y": 40.6296958, "x": 14.8404649, "street_count": 3 }, "geometry": { "type": "Point", "coordinates": [ 14.8404649, 40.6296958 ] } },
{ "type": "Feature", "properties": { "osmid": 3746099034, "y": 40.6272696, "x": 14.8390959, "street_count": 3 }, "geometry": { "type": "Point", "coordinates": [ 14.8390959, 40.6272696 ] } },
{ "type": "Feature", "properties": { "osmid": 3746099046, "y": 40.633575, "x": 14.8346057, "street_count": 3 }, "geometry": { "type": "Point", "coordinates": [ 14.8346057, 40.633575 ] } },
{ "type": "Feature", "properties": { "osmid": 3746099047, "y": 40.6333525, "x": 14.8346486, "street_count": 3 }, "geometry": { "type": "Point", "coordinates": [ 14.8346486, 40.6333525 ] } },
{ "type": "Feature", "properties": { "osmid": 3746099050, "y": 40.6333317, "x": 14.8348087, "street_count": 3 }, "geometry": { "type": "Point", "coordinates": [ 14.8348087, 40.6333317 ] } },
{ "type": "Feature", "properties": { "osmid": 3746099060, "y": 40.6335757, "x": 14.834912, "street_count": 3 }, "geometry": { "type": "Point", "coordinates": [ 14.834912, 40.6335757 ] } },
{ "type": "Feature", "properties": { "osmid": 5171142580, "y": 40.6297952, "x": 14.84032, "street_count": 3 }, "geometry": { "type": "Point", "coordinates": [ 14.84032, 40.6297952 ] } },
{ "type": "Feature", "properties": { "osmid": 5171142581, "y": 40.6296544, "x": 14.8402781, "street_count": 3 }, "geometry": { "type": "Point", "coordinates": [ 14.8402781, 40.6296544 ] } },
{ "type": "Feature", "properties": { "osmid": 5171142595, "y": 40.6307143, "x": 14.8389513, "street_count": 3 }, "geometry": { "type": "Point", "coordinates": [ 14.8389513, 40.6307143 ] } },
{ "type": "Feature", "properties": { "osmid": 5171142598, "y": 40.6310337, "x": 14.8384469, "street_count": 3 }, "geometry": { "type": "Point", "coordinates": [ 14.8384469, 40.6310337 ] } },
{ "type": "Feature", "properties": { "osmid": 5171142599, "y": 40.6306657, "x": 14.8384965, "street_count": 3 }, "geometry": { "type": "Point", "coordinates": [ 14.8384965, 40.6306657 ] } },
{ "type": "Feature", "properties": { "osmid": 5171142600, "y": 40.6288615, "x": 14.836947, "street_count": 2 }, "geometry": { "type": "Point", "coordinates": [ 14.836947, 40.6288615 ] } },
{ "type": "Feature", "properties": { "osmid": 5171142601, "y": 40.6295956, "x": 14.8388496, "street_count": 1 }, "geometry": { "type": "Point", "coordinates": [ 14.8388496, 40.6295956 ] } },
{ "type": "Feature", "properties": { "osmid": 5171142602, "y": 40.6303792, "x": 14.838161, "street_count": 3 }, "geometry": { "type": "Point", "coordinates": [ 14.838161, 40.6303792 ] } },
{ "type": "Feature", "properties": { "osmid": 5171142604, "y": 40.6298317, "x": 14.8380717, "street_count": 3 }, "geometry": { "type": "Point", "coordinates": [ 14.8380717, 40.6298317 ] } },
{ "type": "Feature", "properties": { "osmid": 5171142605, "y": 40.6300955, "x": 14.8379319, "street_count": 4 }, "geometry": { "type": "Point", "coordinates": [ 14.8379319, 40.6300955 ] } },
{ "type": "Feature", "properties": { "osmid": 5171142607, "y": 40.6299236, "x": 14.8377061, "street_count": 3 }, "geometry": { "type": "Point", "coordinates": [ 14.8377061, 40.6299236 ] } },
{ "type": "Feature", "properties": { "osmid": 5171142612, "y": 40.6302229, "x": 14.837688, "street_count": 3 }, "geometry": { "type": "Point", "coordinates": [ 14.837688, 40.6302229 ] } },
{ "type": "Feature", "properties": { "osmid": 5171142614, "y": 40.6300258, "x": 14.8374, "street_count": 3 }, "geometry": { "type": "Point", "coordinates": [ 14.8374, 40.6300258 ] } },
{ "type": "Feature", "properties": { "osmid": 5171142619, "y": 40.6302012, "x": 14.8375468, "street_count": 3 }, "geometry": { "type": "Point", "coordinates": [ 14.8375468, 40.6302012 ] } },
{ "type": "Feature", "properties": { "osmid": 5171142620, "y": 40.6307134, "x": 14.836543, "street_count": 3 }, "geometry": { "type": "Point", "coordinates": [ 14.836543, 40.6307134 ] } },
{ "type": "Feature", "properties": { "osmid": 5171144923, "y": 40.6303148, "x": 14.836916, "street_count": 4 }, "geometry": { "type": "Point", "coordinates": [ 14.836916, 40.6303148 ] } },
{ "type": "Feature", "properties": { "osmid": 5171144926, "y": 40.630284, "x": 14.836209, "street_count": 3 }, "geometry": { "type": "Point", "coordinates": [ 14.836209, 40.630284 ] } },
{ "type": "Feature", "properties": { "osmid": 5171144929, "y": 40.6312996, "x": 14.8369847, "street_count": 3 }, "geometry": { "type": "Point", "coordinates": [ 14.8369847, 40.6312996 ] } },
{ "type": "Feature", "properties": { "osmid": 6275600508, "y": 40.6365212, "x": 14.8407207, "street_count": 3 }, "geometry": { "type": "Point", "coordinates": [ 14.8407207, 40.6365212 ] } },
{ "type": "Feature", "properties": { "osmid": 6275600509, "y": 40.6348211, "x": 14.8388384, "street_count": 3 }, "geometry": { "type": "Point", "coordinates": [ 14.8388384, 40.6348211 ] } },
{ "type": "Feature", "properties": { "osmid": 6275600715, "y": 40.6335932, "x": 14.8346332, "street_count": 3 }, "geometry": { "type": "Point", "coordinates": [ 14.8346332, 40.6335932 ] } },
{ "type": "Feature", "properties": { "osmid": 6275600722, "y": 40.6334965, "x": 14.8349549, "street_count": 3 }, "geometry": { "type": "Point", "coordinates": [ 14.8349549, 40.6334965 ] } },
{ "type": "Feature", "properties": { "osmid": 6275600750, "y": 40.6272603, "x": 14.8400822, "street_count": 3 }, "geometry": { "type": "Point", "coordinates": [ 14.8400822, 40.6272603 ] } },
{ "type": "Feature", "properties": { "osmid": 6275600756, "y": 40.627145, "x": 14.8396544, "street_count": 3 }, "geometry": { "type": "Point", "coordinates": [ 14.8396544, 40.627145 ] } },
{ "type": "Feature", "properties": { "osmid": 6290871994, "y": 40.6321918, "x": 14.8330086, "street_count": 3 }, "geometry": { "type": "Point", "coordinates": [ 14.8330086, 40.6321918 ] } },
{ "type": "Feature", "properties": { "osmid": 6332087834, "y": 40.6321788, "x": 14.8330253, "street_count": 3 }, "geometry": { "type": "Point", "coordinates": [ 14.8330253, 40.6321788 ] } },
{ "type": "Feature", "properties": { "osmid": 13143707691, "y": 40.6285894, "x": 14.8371901, "street_count": 3 }, "geometry": { "type": "Point", "coordinates": [ 14.8371901, 40.6285894 ] } }
]
}
